<?xml version='1.0' encoding='UTF-8'?>
<osm version="0.6" generator="Osmosis 0.40.1">
  <node id="241777508" version="6" timestamp="2011-01-25T23:45:43Z" uid="21289" user="hogrod" changeset="7089501" lat="42.8066714" lon="-89.6354892">
    <tag k="amenity" v="restaurant"/>
    <tag k="name" v="Town Edge Family Restaurant"/>
  </node>
  <node id="241777525" version="2" timestamp="2008-04-08T21:34:14Z" uid="21289" user="hogrod" changeset="93297" lat="42.8186551" lon="-89.6350506">
    <tag k="amenity" v="restaurant"/>
    <tag k="created_by" v="Potlatch 0.8a"/>
    <tag k="name" v="Flannerys"/>
  </node>
  <node id="241777856" version="4" timestamp="2009-07-21T07:13:02Z" uid="21289" user="hogrod" changeset="1891454" lat="42.8146622" lon="-89.6331127">
    <tag k="amenity" v="pub"/>
    <tag k="created_by" v="Potlatch 0.8a"/>
  </node>
  <node id="255340780" version="3" timestamp="2008-09-16T22:23:08Z" uid="21289" user="hogrod" changeset="648769" lat="42.8078906" lon="-89.6321668">
    <tag k="amenity" v="restaurant"/>
    <tag k="created_by" v="Potlatch 0.10b"/>
    <tag k="name" v="Subway"/>
  </node>
  <node id="256499270" version="2" timestamp="2008-04-08T21:35:02Z" uid="21289" user="hogrod" changeset="93297" lat="42.8160109" lon="-89.6349562">
    <tag k="amenity" v="pub"/>
    <tag k="created_by" v="Potlatch 0.8a"/>
    <tag k="name" v="Ott House"/>
  </node>
  <node id="256499341" version="4" timestamp="2010-08-30T15:11:42Z" uid="21289" user="hogrod" changeset="5637065" lat="42.8156036" lon="-89.6353675">
    <tag k="amenity" v="restaurant"/>
    <tag k="name" v="Tofflers"/>
  </node>
  <node id="256499436" version="4" timestamp="2010-08-30T15:11:42Z" uid="21289" user="hogrod" changeset="5637065" lat="42.8152022" lon="-89.6348525">
    <tag k="amenity" v="restaurant"/>
    <tag k="name" v="Deininger&apos;s"/>
  </node>
  <node id="256500109" version="6" timestamp="2009-07-29T04:52:24Z" uid="21289" user="hogrod" changeset="1971621" lat="42.8152228" lon="-89.633747">
    <tag k="amenity" v="pub"/>
    <tag k="name" v="Sportsmans"/>
  </node>
  <node id="256500148" version="4" timestamp="2009-07-29T04:52:25Z" uid="21289" user="hogrod" changeset="1971621" lat="42.8150535" lon="-89.633747">
    <tag k="amenity" v="pub"/>
    <tag k="name" v="Glarner Stube"/>
  </node>
  <node id="259171888" version="3" timestamp="2008-09-16T22:20:49Z" uid="21289" user="hogrod" changeset="648769" lat="42.8162019" lon="-89.6327762">
    <tag k="amenity" v="restaurant"/>
    <tag k="created_by" v="Potlatch 0.10b"/>
    <tag k="name" v="Whistle Stop icecream shop"/>
  </node>
  <node id="434789237" version="4" timestamp="2012-07-18T20:35:35Z" uid="722137" user="OSMF Redaction Account" changeset="12297482" lat="43.0751883" lon="-89.4375815">
    <tag k="amenity" v="restaurant"/>
    <tag k="cuisine" v="thai"/>
  </node>
  <node id="442436323" version="3" timestamp="2009-07-29T04:54:18Z" uid="21289" user="hogrod" changeset="1971629" lat="42.8153448" lon="-89.6337579">
    <tag k="amenity" v="pub"/>
    <tag k="name" v="Primrose Winery"/>
  </node>
  <node id="448428215" version="1" timestamp="2009-07-26T17:07:29Z" uid="21289" user="hogrod" changeset="1946314" lat="43.0906404" lon="-89.5240715">
    <tag k="amenity" v="restaurant"/>
    <tag k="name" v="Denny&apos;s"/>
  </node>
  <node id="452865400" version="2" timestamp="2011-07-04T14:10:51Z" uid="16591" user="neuhausr" changeset="8629850" lat="43.0754979" lon="-89.4667398">
    <tag k="amenity" v="restaurant"/>
    <tag k="cuisine" v="pizza"/>
    <tag k="name" v="Glass Nickel Pizza"/>
  </node>
  <node id="478453963" version="1" timestamp="2009-08-31T04:07:56Z" uid="21289" user="hogrod" changeset="2321668" lat="43.0019975" lon="-89.5310738">
    <tag k="amenity" v="restaurant"/>
    <tag k="name" v="Papa Murphy&apos;s Pizza"/>
  </node>
  <node id="478453964" version="2" timestamp="2009-09-21T11:51:40Z" uid="70696" user="xybot" changeset="2554880" lat="43.0019975" lon="-89.5308593">
    <tag k="amenity" v="restaurant"/>
    <tag k="name" v="Chang Jiang"/>
  </node>
  <node id="478453966" version="2" timestamp="2009-09-21T11:51:40Z" uid="70696" user="xybot" changeset="2554880" lat="43.0019975" lon="-89.5306104">
    <tag k="amenity" v="restaurant"/>
    <tag k="name" v="Milo&apos;s"/>
  </node>
  <node id="478453967" version="1" timestamp="2009-08-31T04:07:56Z" uid="21289" user="hogrod" changeset="2321668" lat="43.0018531" lon="-89.5297435">
    <tag k="amenity" v="pub"/>
    <tag k="name" v="Draft House Bar &amp; Resterant"/>
  </node>
  <node id="480618406" version="2" timestamp="2009-12-08T13:26:31Z" uid="21289" user="hogrod" changeset="3324815" lat="42.8240484" lon="-89.3020349">
    <tag k="addr:housenumber" v="10430"/>
    <tag k="amenity" v="bar"/>
    <tag k="name" v="Union Tavern"/>
  </node>
  <node id="492960350" version="2" timestamp="2012-04-10T19:29:13Z" uid="325628" user="jirilebl" changeset="11256911" lat="43.0605986" lon="-89.4389123">
    <tag k="addr:housenumber" v="3801"/>
    <tag k="addr:street" v="Mineral Point Rd"/>
    <tag k="amenity" v="pub"/>
    <tag k="name" v="Village Bar"/>
  </node>
  <node id="504392310" version="2" timestamp="2010-12-15T15:07:01Z" uid="83450" user="LoganS" changeset="6668499" lat="43.0909473" lon="-89.5267419">
    <tag k="amenity" v="restaurant"/>
    <tag k="name" v="Bucatini"/>
  </node>
  <node id="504392321" version="2" timestamp="2010-12-15T15:07:00Z" uid="83450" user="LoganS" changeset="6668499" lat="43.0909555" lon="-89.527598">
    <tag k="amenity" v="restaurant"/>
    <tag k="name" v="TGI Friday&apos;s"/>
  </node>
  <node id="504392401" version="3" timestamp="2010-12-15T16:00:37Z" uid="83450" user="LoganS" changeset="6668683" lat="43.0911406" lon="-89.529249">
    <tag k="amenity" v="pub"/>
    <tag k="name" v="Claddagh Irish Pub"/>
  </node>
  <node id="504392411" version="4" timestamp="2013-04-13T08:19:15Z" uid="190869" user="elbatrop" changeset="15709843" lat="43.0908057" lon="-89.5292932">
    <tag k="addr:city" v="Middleton"/>
    <tag k="addr:housenumber" v="1601"/>
    <tag k="addr:postcode" v="53562"/>
    <tag k="addr:state" v="WI"/>
    <tag k="addr:street" v="Aspen Commons"/>
    <tag k="amenity" v="bar"/>
    <tag k="name" v="Cheeseburger in Paradise"/>
    <tag k="opening_hours" v="Mo-Th 11:00-00:00; Fr,Sa 11:00-01:00; Su 11:00-20:00"/>
    <tag k="website" v="http://www.cheeseburgerinparadise.com/Cheeseburger-Locations/WI/Middleton/Overview.aspx"/>
  </node>
  <node id="534541615" version="2" timestamp="2011-03-28T06:25:47Z" uid="21289" user="hogrod" changeset="7693544" lat="43.0464324" lon="-89.3521022">
    <tag k="amenity" v="restaurant"/>
    <tag k="name" v="World Buffet"/>
  </node>
  <node id="534548994" version="1" timestamp="2009-10-18T06:55:37Z" uid="21289" user="hogrod" changeset="2879880" lat="42.9378739" lon="-89.3837075">
    <tag k="amenity" v="restaurant"/>
    <tag k="name" v="Subway"/>
  </node>
  <node id="534548998" version="1" timestamp="2009-10-18T06:55:37Z" uid="21289" user="hogrod" changeset="2879880" lat="42.9182974" lon="-89.3748155">
    <tag k="amenity" v="restaurant"/>
    <tag k="name" v="Subtown"/>
  </node>
  <node id="534550864" version="1" timestamp="2009-10-18T07:07:59Z" uid="21289" user="hogrod" changeset="2879896" lat="42.9894632" lon="-89.5408167">
    <tag k="amenity" v="restaurant"/>
    <tag k="name" v="Subway"/>
  </node>
  <node id="534550867" version="1" timestamp="2009-10-18T07:08:00Z" uid="21289" user="hogrod" changeset="2879896" lat="42.989212" lon="-89.53904">
    <tag k="amenity" v="restaurant"/>
    <tag k="name" v="michael&apos;s frozen custard"/>
  </node>
  <node id="534550870" version="1" timestamp="2009-10-18T07:08:00Z" uid="21289" user="hogrod" changeset="2879896" lat="42.9880882" lon="-89.5331349">
    <tag k="amenity" v="restaurant"/>
    <tag k="name" v="Cousins Subs"/>
  </node>
  <node id="534550879" version="3" timestamp="2011-03-15T10:53:29Z" uid="21289" user="hogrod" changeset="7565018" lat="43.0148736" lon="-89.4984216">
    <tag k="amenity" v="restaurant"/>
    <tag k="name" v="Quiznos"/>
  </node>
  <node id="539880386" version="3" timestamp="2011-01-24T01:57:57Z" uid="21289" user="hogrod" changeset="7069236" lat="42.8751127" lon="-89.5342211">
    <tag k="amenity" v="restaurant"/>
    <tag k="name" v="Sugar River Pizza"/>
  </node>
  <node id="558531523" version="1" timestamp="2009-11-06T18:11:29Z" uid="21289" user="hogrod" changeset="3050515" lat="43.0370144" lon="-89.4544478">
    <tag k="amenity" v="restaurant"/>
    <tag k="name" v="KFC"/>
  </node>
  <node id="558581585" version="1" timestamp="2009-11-06T20:46:54Z" uid="21289" user="hogrod" changeset="3051524" lat="43.1053144" lon="-89.5101248">
    <tag k="amenity" v="restaurant"/>
    <tag k="name" v="Cousins Subs"/>
  </node>
  <node id="558584939" version="3" timestamp="2011-07-26T05:16:03Z" uid="16591" user="neuhausr" changeset="8832209" lat="43.0553308" lon="-89.5020802">
    <tag k="amenity" v="restaurant"/>
    <tag k="name" v="Ponderosa"/>
  </node>
  <node id="558596121" version="2" timestamp="2011-03-24T03:50:06Z" uid="24186" user="Brutus" changeset="7652512" lat="43.048567" lon="-89.3115936">
    <tag k="amenity" v="restaurant"/>
    <tag k="name" v="Denny&apos;s"/>
  </node>
  <node id="558602318" version="1" timestamp="2009-11-06T21:40:15Z" uid="21289" user="hogrod" changeset="3051955" lat="43.0321826" lon="-89.3548488">
    <tag k="amenity" v="bar"/>
    <tag k="name" v="The Farm Tavern"/>
  </node>
  <node id="558634496" version="2" timestamp="2012-08-25T23:12:08Z" uid="16591" user="neuhausr" changeset="12861042" lat="43.0496662" lon="-89.5039273">
    <tag k="amenity" v="restaurant"/>
    <tag k="name" v="Little Caesar&apos;s pizza"/>
  </node>
  <node id="558636596" version="1" timestamp="2009-11-06T23:14:34Z" uid="21289" user="hogrod" changeset="3052529" lat="43.04966" lon="-89.5027171">
    <tag k="amenity" v="restaurant"/>
    <tag k="name" v="Domino&apos;s Pizza"/>
  </node>
  <node id="558637254" version="2" timestamp="2012-03-25T23:53:33Z" uid="70696" user="xybot" changeset="11100494" lat="43.0395923" lon="-89.5036955">
    <tag k="amenity" v="restaurant"/>
    <tag k="name" v="Griffs"/>
  </node>
  <node id="558652384" version="1" timestamp="2009-11-07T00:53:48Z" uid="21289" user="hogrod" changeset="3052991" lat="43.0253212" lon="-89.4141657">
    <tag k="amenity" v="restaurant"/>
    <tag k="name" v="Dairy Queen"/>
  </node>
  <node id="558652388" version="2" timestamp="2010-03-06T23:21:43Z" uid="21289" user="hogrod" changeset="4056143" lat="43.0258424" lon="-89.4148731">
    <tag k="amenity" v="restaurant"/>
    <tag k="name" v="Yes Buffet"/>
  </node>
  <node id="558652392" version="1" timestamp="2009-11-07T00:53:50Z" uid="21289" user="hogrod" changeset="3052991" lat="43.0316834" lon="-89.4080459">
    <tag k="amenity" v="restaurant"/>
    <tag k="name" v="KFC"/>
  </node>
  <node id="558652406" version="2" timestamp="2012-03-25T23:53:37Z" uid="70696" user="xybot" changeset="11100494" lat="43.0300207" lon="-89.4108869">
    <tag k="amenity" v="restaurant"/>
    <tag k="name" v="Popeye&apos;s"/>
  </node>
  <node id="558655049" version="1" timestamp="2009-11-07T01:03:52Z" uid="21289" user="hogrod" changeset="3052991" lat="43.0344878" lon="-89.4235985">
    <tag k="amenity" v="restaurant"/>
    <tag k="name" v="Grand China Buffet"/>
  </node>
  <node id="558656201" version="1" timestamp="2009-11-07T01:16:53Z" uid="21289" user="hogrod" changeset="3052991" lat="43.0355041" lon="-89.41002">
    <tag k="amenity" v="restaurant"/>
    <tag k="name" v="Rocky Rococo"/>
  </node>
  <node id="558656242" version="1" timestamp="2009-11-07T01:16:55Z" uid="21289" user="hogrod" changeset="3052991" lat="43.0352971" lon="-89.4077026">
    <tag k="amenity" v="restaurant"/>
    <tag k="name" v="Perkins"/>
  </node>
  <node id="558656255" version="1" timestamp="2009-11-07T01:16:56Z" uid="21289" user="hogrod" changeset="3052991" lat="43.0362758" lon="-89.4067241">
    <tag k="amenity" v="restaurant"/>
    <tag k="name" v="Pizza Pit"/>
  </node>
  <node id="558656257" version="2" timestamp="2009-11-08T13:26:14Z" uid="21289" user="hogrod" changeset="3063682" lat="43.0368679" lon="-89.4185076">
    <tag k="amenity" v="bar"/>
    <tag k="name" v="Alt&apos;n Bach&apos;s Town Tap"/>
  </node>
  <node id="558685363" version="1" timestamp="2009-11-07T05:25:27Z" uid="21289" user="hogrod" changeset="3053445" lat="42.8598204" lon="-89.535489">
    <tag k="amenity" v="bar"/>
    <tag k="name" v="Borlands"/>
  </node>
  <node id="559478973" version="2" timestamp="2011-03-15T10:53:30Z" uid="21289" user="hogrod" changeset="7565018" lat="43.0146971" lon="-89.4984188">
    <tag k="amenity" v="restaurant"/>
    <tag k="name" v="Papa Johns"/>
  </node>
  <node id="559478977" version="4" timestamp="2011-09-20T22:12:47Z" uid="479744" user="Midnightlightning" changeset="9356309" lat="43.0160347" lon="-89.4970646">
    <tag k="amenity" v="restaurant"/>
    <tag k="cuisine" v="pizza"/>
    <tag k="name" v="Pizza Hut"/>
  </node>
  <node id="559484058" version="2" timestamp="2009-11-08T13:48:56Z" uid="21289" user="hogrod" changeset="3063869" lat="43.0352543" lon="-89.4537318">
    <tag k="amenity" v="restaurant"/>
    <tag k="name" v="Einstein Brothers Bagels"/>
  </node>
  <node id="559486171" version="2" timestamp="2011-02-28T04:25:15Z" uid="21289" user="hogrod" changeset="7417371" lat="43.0351143" lon="-89.4562492">
    <tag k="amenity" v="restaurant"/>
    <tag k="name" v="Ginos Italian Deli"/>
  </node>
  <node id="559490231" version="1" timestamp="2009-11-08T13:58:40Z" uid="21289" user="hogrod" changeset="3063962" lat="43.0582152" lon="-89.5020969">
    <tag k="amenity" v="restaurant"/>
    <tag k="name" v="Denny&apos;s"/>
  </node>
  <node id="559494201" version="2" timestamp="2011-03-26T03:36:25Z" uid="24186" user="Brutus" changeset="7671880" lat="43.0614865" lon="-89.5049193">
    <tag k="amenity" v="restaurant"/>
    <tag k="name" v="Noodles &amp; Company"/>
  </node>
  <node id="559494715" version="1" timestamp="2009-11-08T14:06:25Z" uid="21289" user="hogrod" changeset="3064003" lat="43.060096" lon="-89.5131244">
    <tag k="amenity" v="restaurant"/>
    <tag k="name" v="KFC"/>
  </node>
  <node id="559496394" version="1" timestamp="2009-11-08T14:09:34Z" uid="21289" user="hogrod" changeset="3064003" lat="43.0609865" lon="-89.5121802">
    <tag k="amenity" v="restaurant"/>
    <tag k="name" v="Pizza Hut"/>
  </node>
  <node id="559830168" version="1" timestamp="2009-11-09T00:36:29Z" uid="21289" user="hogrod" changeset="3070040" lat="43.014224" lon="-89.4274594">
    <tag k="amenity" v="restaurant"/>
    <tag k="name" v="Pizza Hut"/>
  </node>
  <node id="559830393" version="1" timestamp="2009-11-09T00:39:47Z" uid="21289" user="hogrod" changeset="3070040" lat="43.0160753" lon="-89.4288756">
    <tag k="amenity" v="restaurant"/>
    <tag k="name" v="Noodles &amp; Company"/>
  </node>
  <node id="566320883" version="2" timestamp="2010-11-03T19:14:55Z" uid="198315" user="coulee1" changeset="6278645" lat="43.085314" lon="-89.2798975">
    <tag k="amenity" v="restaurant"/>
    <tag k="name" v="Great Dane Pub"/>
  </node>
  <node id="567255626" version="2" timestamp="2011-04-19T02:29:23Z" uid="21289" user="hogrod" changeset="7902839" lat="42.9254735" lon="-89.3844706">
    <tag k="amenity" v="restaurant"/>
    <tag k="name" v="Maria&apos;s Pizza"/>
  </node>
  <node id="567255627" version="1" timestamp="2009-11-20T02:09:03Z" uid="21289" user="hogrod" changeset="3165592" lat="42.9267524" lon="-89.3839217">
    <tag k="amenity" v="restaurant"/>
    <tag k="name" v="Pizza Pit"/>
  </node>
  <node id="567594256" version="9" timestamp="2011-07-25T20:05:24Z" uid="16591" user="neuhausr" changeset="8829739" lat="43.0582766" lon="-89.5049367">
    <tag k="amenity" v="restaurant"/>
    <tag k="name" v="Sarku Japan"/>
  </node>
  <node id="567594259" version="9" timestamp="2011-07-25T20:05:24Z" uid="16591" user="neuhausr" changeset="8829739" lat="43.0582785" lon="-89.5051486">
    <tag k="amenity" v="restaurant"/>
    <tag k="name" v="Katos Cajun"/>
  </node>
  <node id="567594260" version="10" timestamp="2011-07-25T20:05:24Z" uid="16591" user="neuhausr" changeset="8829739" lat="43.0584451" lon="-89.5048268">
    <tag k="amenity" v="restaurant"/>
    <tag k="name" v="Quiznos"/>
  </node>
  <node id="567670331" version="1" timestamp="2009-11-20T23:43:31Z" uid="21289" user="hogrod" changeset="3172650" lat="42.929212" lon="-89.5258934">
    <tag k="amenity" v="bar"/>
    <tag k="name" v="Paoli Pub"/>
  </node>
  <node id="567670332" version="2" timestamp="2012-03-26T00:24:39Z" uid="70696" user="xybot" changeset="11100494" lat="42.9502677" lon="-89.5154049">
    <tag k="amenity" v="bar"/>
    <tag k="name" v="Old Duffers"/>
  </node>
  <node id="567936557" version="1" timestamp="2009-11-21T16:10:44Z" uid="200044" user="wesgrubbs" changeset="3177310" lat="43.0832715" lon="-89.3640175">
    <tag k="amenity" v="restaurant"/>
    <tag k="name" v="Weary Traveler"/>
  </node>
  <node id="567936558" version="1" timestamp="2009-11-21T16:10:44Z" uid="200044" user="wesgrubbs" changeset="3177310" lat="43.0847196" lon="-89.3625498">
    <tag k="amenity" v="bar"/>
    <tag k="name" v="Crystal Corner Bar"/>
  </node>
  <node id="567937912" version="2" timestamp="2012-10-06T21:55:05Z" uid="290680" user="wheelmap_visitor" changeset="13387708" lat="43.0820038" lon="-89.3664073">
    <tag k="amenity" v="restaurant"/>
    <tag k="name" v="Roman Candle"/>
    <tag k="wheelchair" v="no"/>
  </node>
  <node id="568959182" version="1" timestamp="2009-11-23T04:06:48Z" uid="21289" user="hogrod" changeset="3192783" lat="43.0940146" lon="-89.4926652">
    <tag k="amenity" v="restaurant"/>
    <tag k="name" v="Sonic Drive-in"/>
  </node>
  <node id="576827447" version="1" timestamp="2009-12-01T02:28:55Z" uid="163356" user="gvondra" changeset="3261357" lat="43.0176644" lon="-89.4235354">
    <tag k="amenity" v="bar"/>
    <tag k="name" v="The Great Dane Pub &amp; Brewing Company"/>
  </node>
  <node id="577254012" version="1" timestamp="2009-12-01T15:10:52Z" uid="21289" user="hogrod" changeset="3264727" lat="43.3082148" lon="-89.5264617">
    <tag k="amenity" v="restaurant"/>
    <tag k="name" v="Lucy&apos;s Cafe"/>
  </node>
  <node id="581609793" version="2" timestamp="2011-03-09T01:27:15Z" uid="21289" user="hogrod" changeset="7500309" lat="42.9464065" lon="-89.6570027">
    <tag k="amenity" v="bar"/>
    <tag k="name" v="Gone Fish Inn"/>
  </node>
  <node id="581614321" version="1" timestamp="2009-12-05T06:57:19Z" uid="21289" user="hogrod" changeset="3293324" lat="43.0087983" lon="-89.7113713">
    <tag k="amenity" v="restaurant"/>
    <tag k="name" v="Subway"/>
  </node>
  <node id="587148531" version="6" timestamp="2011-07-25T20:05:24Z" uid="16591" user="neuhausr" changeset="8829739" lat="43.0584569" lon="-89.5052667">
    <tag k="amenity" v="restaurant"/>
    <tag k="name" v="Stir Fry 88"/>
  </node>
  <node id="587148536" version="9" timestamp="2011-07-25T20:05:24Z" uid="16591" user="neuhausr" changeset="8829739" lat="43.0582844" lon="-89.5052157">
    <tag k="amenity" v="restaurant"/>
    <tag k="name" v="Rocky Rococo&apos;s"/>
  </node>
  <node id="587148542" version="6" timestamp="2011-07-25T20:05:23Z" uid="16591" user="neuhausr" changeset="8829739" lat="43.0582923" lon="-89.5048374">
    <tag k="amenity" v="restaurant"/>
    <tag k="name" v="Potbelly Sandwich Works"/>
  </node>
  <node id="609996781" version="1" timestamp="2010-01-09T00:00:56Z" uid="999" user="mikelmaron" changeset="3574773" lat="43.176276" lon="-89.794298">
    <tag k="amenity" v="restaurant"/>
    <tag k="name" v="Wall Street"/>
  </node>
  <node id="634960652" version="2" timestamp="2011-08-19T23:18:36Z" uid="290680" user="wheelmap_visitor" changeset="9068170" lat="43.0658966" lon="-89.5239732">
    <tag k="addr:city" v="Madison"/>
    <tag k="addr:housenumber" v="279"/>
    <tag k="addr:postcode" v="WI 53717"/>
    <tag k="addr:street" v="Junction Road"/>
    <tag k="amenity" v="restaurant"/>
    <tag k="name" v="Outback Steakhouse"/>
    <tag k="wheelchair" v="limited"/>
  </node>
  <node id="651773464" version="3" timestamp="2012-09-23T02:40:32Z" uid="290680" user="wheelmap_visitor" changeset="13215004" lat="43.0831749" lon="-89.3648763">
    <tag k="amenity" v="restaurant"/>
    <tag k="name" v="Lao Laan-Xang"/>
    <tag k="wheelchair" v="no"/>
  </node>
  <node id="652738377" version="1" timestamp="2010-02-24T19:08:57Z" uid="236820" user="GIS_Analyst_Ben" changeset="3965646" lat="43.0440261" lon="-89.302764">
    <tag k="amenity" v="restaurant"/>
    <tag k="name" v="Toby&apos;s Supper Club"/>
  </node>
  <node id="658957322" version="2" timestamp="2011-04-08T18:25:15Z" uid="24186" user="Brutus" changeset="7806615" lat="43.0444168" lon="-89.267313">
    <tag k="amenity" v="restaurant"/>
    <tag k="name" v="Subway"/>
  </node>
  <node id="661670576" version="1" timestamp="2010-03-06T23:39:20Z" uid="21289" user="hogrod" changeset="4056266" lat="43.0203039" lon="-89.4191937">
    <tag k="amenity" v="restaurant"/>
    <tag k="name" v="Panera Bread"/>
  </node>
  <node id="665036725" version="1" timestamp="2010-03-13T05:15:19Z" uid="21289" user="hogrod" changeset="4111734" lat="43.2714299" lon="-89.7322579">
    <tag k="amenity" v="restaurant"/>
    <tag k="name" v="Dairy Queen"/>
  </node>
  <node id="669061677" version="1" timestamp="2010-03-18T20:13:33Z" uid="21289" user="hogrod" changeset="4164686" lat="43.0840422" lon="-89.6563224">
    <tag k="amenity" v="restaurant"/>
    <tag k="name" v="Hill Top"/>
  </node>
  <node id="671517700" version="1" timestamp="2010-03-21T16:42:59Z" uid="21289" user="hogrod" changeset="4193397" lat="43.1655967" lon="-89.7702075">
    <tag k="amenity" v="bar"/>
    <tag k="name" v="Rookies"/>
  </node>
  <node id="679926123" version="1" timestamp="2010-04-01T15:40:10Z" uid="255856" user="Seidensticker" changeset="4295008" lat="43.0855429" lon="-89.3693608">
    <tag k="amenity" v="restaurant"/>
    <tag k="name" v="The Avenue Bar"/>
  </node>
  <node id="700674204" version="3" timestamp="2012-07-18T20:36:50Z" uid="722137" user="OSMF Redaction Account" changeset="12297521" lat="43.0233234" lon="-89.6236048">
    <tag k="amenity" v="bar"/>
  </node>
  <node id="727109757" version="1" timestamp="2010-05-09T07:11:47Z" uid="21289" user="hogrod" changeset="4645136" lat="43.1983107" lon="-89.2119459">
    <tag k="amenity" v="restaurant"/>
    <tag k="name" v="Jimmy John&apos;s"/>
  </node>
  <node id="761230792" version="1" timestamp="2010-06-01T13:09:50Z" uid="296119" user="TheJet" changeset="4874426" lat="43.1072203" lon="-89.2873448">
    <tag k="amenity" v="pub"/>
    <tag k="name" v="Eagle Crest Bar"/>
  </node>
  <node id="823964426" version="1" timestamp="2010-07-19T02:32:31Z" uid="21289" user="hogrod" changeset="5257151" lat="43.266286" lon="-89.7157458">
    <tag k="amenity" v="restaurant"/>
    <tag k="name" v="Green Acres"/>
  </node>
  <node id="825488044" version="1" timestamp="2010-07-20T07:41:39Z" uid="21289" user="hogrod" changeset="5267996" lat="43.2916281" lon="-89.7211425">
    <tag k="amenity" v="restaurant"/>
    <tag k="name" v="Blue Spoon Cafe"/>
  </node>
  <node id="837354048" version="1" timestamp="2010-07-29T10:55:01Z" uid="21289" user="hogrod" changeset="5345701" lat="42.8695026" lon="-89.0553106">
    <tag k="amenity" v="restaurant"/>
    <tag k="name" v="Winchester Resterant"/>
  </node>
  <node id="848300598" version="2" timestamp="2010-08-07T00:11:56Z" uid="21289" user="hogrod" changeset="5421498" lat="43.3322378" lon="-89.4606964">
    <tag k="amenity" v="restaurant"/>
    <tag k="name" v="Rocky Rococo"/>
  </node>
  <node id="848300986" version="1" timestamp="2010-08-07T00:11:56Z" uid="21289" user="hogrod" changeset="5421498" lat="43.3320662" lon="-89.4604925">
    <tag k="amenity" v="restaurant"/>
    <tag k="name" v="A&amp;W"/>
  </node>
  <node id="848300987" version="1" timestamp="2010-08-07T00:11:56Z" uid="21289" user="hogrod" changeset="5421498" lat="43.3321052" lon="-89.4609538">
    <tag k="amenity" v="restaurant"/>
    <tag k="name" v="Cousin&apos;s Subs"/>
  </node>
  <node id="848316826" version="1" timestamp="2010-08-07T00:59:56Z" uid="21289" user="hogrod" changeset="5421579" lat="43.3132749" lon="-89.5263704">
    <tag k="amenity" v="bar"/>
    <tag k="name" v="Spring Creek Tavern"/>
  </node>
  <node id="848400375" version="1" timestamp="2010-08-07T07:28:02Z" uid="21289" user="hogrod" changeset="5422394" lat="43.3221707" lon="-89.5363948">
    <tag k="amenity" v="restaurant"/>
    <tag k="name" v="Pizza Pit"/>
  </node>
  <node id="848400475" version="1" timestamp="2010-08-07T07:28:59Z" uid="21289" user="hogrod" changeset="5422394" lat="43.3230761" lon="-89.5373282">
    <tag k="amenity" v="restaurant"/>
    <tag k="name" v="Subway"/>
  </node>
  <node id="874561129" version="1" timestamp="2010-08-22T22:57:24Z" uid="106506" user="gengnom" changeset="5566685" lat="43.0719197" lon="-89.4284017">
    <tag k="amenity" v="restaurant"/>
    <tag k="cuisine" v="japanese"/>
    <tag k="name" v="Sushi Box"/>
  </node>
  <node id="874561133" version="1" timestamp="2010-08-22T22:57:24Z" uid="106506" user="gengnom" changeset="5566685" lat="43.0722489" lon="-89.4288952">
    <tag k="amenity" v="restaurant"/>
    <tag k="cuisine" v="italian"/>
    <tag k="name" v="Lombardino&apos;s"/>
  </node>
  <node id="914118018" version="1" timestamp="2010-09-16T02:11:44Z" uid="347526" user="kmuellman" changeset="5792149" lat="43.0834892" lon="-89.3242104">
    <tag k="amenity" v="bar"/>
    <tag k="name" v="Jade Monkey"/>
  </node>
  <node id="956773204" version="1" timestamp="2010-10-19T08:23:03Z" uid="360454" user="coldReactive" changeset="6094271" lat="43.08554" lon="-89.3609119">
    <tag k="amenity" v="restaurant"/>
    <tag k="name" v="Willaby&apos;s"/>
  </node>
  <node id="956777673" version="2" timestamp="2011-03-25T00:01:27Z" uid="24186" user="Brutus" changeset="7661343" lat="43.1296121" lon="-89.2934469">
    <tag k="amenity" v="restaurant"/>
    <tag k="cuisine" v="american"/>
    <tag k="name" v="Cracker Barrel"/>
  </node>
  <node id="956778182" version="2" timestamp="2011-03-26T04:59:36Z" uid="21289" user="hogrod" changeset="7672101" lat="43.1355098" lon="-89.29084">
    <tag k="amenity" v="restaurant"/>
    <tag k="name" v="Uno&apos;s Chicago Grill"/>
  </node>
  <node id="956781837" version="1" timestamp="2010-10-19T08:44:24Z" uid="360454" user="coldReactive" changeset="6094271" lat="43.1159191" lon="-89.3250669">
    <tag k="amenity" v="restaurant"/>
    <tag k="name" v="China Buffet"/>
  </node>
  <node id="956788746" version="2" timestamp="2011-03-07T23:44:50Z" uid="290680" user="wheelmap_visitor" changeset="7490214" lat="43.0718888" lon="-89.3957163">
    <tag k="amenity" v="restaurant"/>
    <tag k="name" v="Nitty Gritty"/>
    <tag k="wheelchair" v="yes"/>
  </node>
  <node id="963641886" version="1" timestamp="2010-10-24T17:20:02Z" uid="21289" user="hogrod" changeset="6159396" lat="42.917567" lon="-89.371929">
    <tag k="amenity" v="restaurant"/>
    <tag k="name" v="Pizza Hut"/>
  </node>
  <node id="1004883928" version="1" timestamp="2010-11-26T03:04:30Z" uid="16591" user="neuhausr" changeset="6459163" lat="43.0453621" lon="-89.4738427">
    <tag k="amenity" v="restaurant"/>
    <tag k="name" v="Copper Top"/>
  </node>
  <node id="1006338535" version="1" timestamp="2010-11-27T05:12:24Z" uid="16591" user="neuhausr" changeset="6467015" lat="43.057809" lon="-89.5135864">
    <tag k="amenity" v="restaurant"/>
  </node>
  <node id="1006376227" version="1" timestamp="2010-11-27T05:34:35Z" uid="16591" user="neuhausr" changeset="6467055" lat="43.0951399" lon="-89.5106707">
    <tag k="amenity" v="restaurant"/>
    <tag k="name" v="Hubbard Ave Diner"/>
  </node>
  <node id="1043313921" version="2" timestamp="2010-12-17T17:40:15Z" uid="385012" user="jjskalet" changeset="6688231" lat="43.0104342" lon="-89.7179089">
    <tag k="amenity" v="restaurant"/>
    <tag k="cuisine" v="burger"/>
    <tag k="name" v="Culver&apos;s"/>
  </node>
  <node id="1112503226" version="1" timestamp="2011-01-21T03:17:03Z" uid="80771" user="jimm" changeset="7036705" lat="43.0921429" lon="-89.3555865">
    <tag k="amenity" v="restaurant"/>
    <tag k="name" v="Green Owl Cafe"/>
  </node>
  <node id="1129946619" version="1" timestamp="2011-01-31T21:59:07Z" uid="83450" user="LoganS" changeset="7149718" lat="43.1065191" lon="-89.4977858">
    <tag k="amenity" v="restaurant"/>
    <tag k="name" v="Byrd&apos;s Bar and Grill"/>
  </node>
  <node id="1143457654" version="1" timestamp="2011-02-09T07:57:53Z" uid="21289" user="hogrod" changeset="7233550" lat="43.0099517" lon="-89.7317147">
    <tag k="amenity" v="restaurant"/>
    <tag k="name" v="Spring Garden Family Restarurant"/>
  </node>
  <node id="1173045529" version="2" timestamp="2011-03-02T04:01:02Z" uid="21289" user="hogrod" changeset="7435060" lat="43.07476" lon="-89.3959987">
    <tag k="amenity" v="bar"/>
    <tag k="name" v="State St Brats"/>
  </node>
  <node id="1173045543" version="1" timestamp="2011-02-25T21:48:20Z" uid="16591" user="neuhausr" changeset="7394862" lat="43.0747444" lon="-89.3954436">
    <tag k="amenity" v="restaurant"/>
    <tag k="name" v="Husnus"/>
  </node>
  <node id="1177756335" version="1" timestamp="2011-02-27T19:47:04Z" uid="21289" user="hogrod" changeset="7414705" lat="43.0386891" lon="-89.4517974">
    <tag k="amenity" v="restaurant"/>
    <tag k="name" v="Yen Ching Restaurant"/>
  </node>
  <node id="1182048457" version="2" timestamp="2011-03-02T04:16:17Z" uid="21289" user="hogrod" changeset="7435121" lat="43.0735613" lon="-89.3959962">
    <tag k="amenity" v="bar"/>
    <tag k="name" v="The Red Shed"/>
  </node>
  <node id="1182051258" version="2" timestamp="2011-03-02T04:16:17Z" uid="21289" user="hogrod" changeset="7435121" lat="43.0733732" lon="-89.3960016">
    <tag k="amenity" v="bar"/>
    <tag k="name" v="Wando&apos;s Bar &amp; Grill"/>
  </node>
  <node id="1182056217" version="1" timestamp="2011-03-02T03:35:54Z" uid="21289" user="hogrod" changeset="7434976" lat="43.0733846" lon="-89.3970623">
    <tag k="amenity" v="bar"/>
    <tag k="name" v="Church Key Bar &amp; Grill"/>
  </node>
  <node id="1182126595" version="1" timestamp="2011-03-02T04:38:22Z" uid="21289" user="hogrod" changeset="7435179" lat="43.0746973" lon="-89.3908918">
    <tag k="amenity" v="restaurant"/>
    <tag k="name" v="Pizza Di Roma"/>
  </node>
  <node id="1182126597" version="3" timestamp="2011-03-02T05:06:53Z" uid="21289" user="hogrod" changeset="7435257" lat="43.0749737" lon="-89.3909137">
    <tag k="amenity" v="restaurant"/>
    <tag k="name" v="Parthenon Gyros"/>
  </node>
  <node id="1182212348" version="1" timestamp="2011-03-02T05:18:08Z" uid="21289" user="hogrod" changeset="7435279" lat="43.0734539" lon="-89.3952086">
    <tag k="amenity" v="bar"/>
    <tag k="name" v="Lava Lounge"/>
  </node>
  <node id="1182216256" version="1" timestamp="2011-03-02T05:20:27Z" uid="21289" user="hogrod" changeset="7435288" lat="43.0745154" lon="-89.3941571">
    <tag k="amenity" v="bar"/>
    <tag k="name" v="Amy&apos;s Cafe &amp; Bar"/>
  </node>
  <node id="1182253627" version="1" timestamp="2011-03-02T05:42:28Z" uid="21289" user="hogrod" changeset="7435332" lat="43.0737598" lon="-89.3929665">
    <tag k="amenity" v="restaurant"/>
    <tag k="name" v="Domino&apos;s Pizza"/>
  </node>
  <node id="1182256364" version="1" timestamp="2011-03-02T05:44:55Z" uid="21289" user="hogrod" changeset="7435332" lat="43.0733669" lon="-89.3962454">
    <tag k="amenity" v="restaurant"/>
    <tag k="name" v="A8 China"/>
  </node>
  <node id="1182263550" version="2" timestamp="2013-02-06T09:09:07Z" uid="589814" user="capstone" changeset="14930422" lat="43.0756871" lon="-89.3971824">
    <tag k="amenity" v="bar"/>
    <tag k="name" v="Kollege Club"/>
  </node>
  <node id="1182271388" version="1" timestamp="2011-03-02T05:55:29Z" uid="21289" user="hogrod" changeset="7435371" lat="43.0748853" lon="-89.3874639">
    <tag k="amenity" v="restaurant"/>
    <tag k="name" v="Zander&apos;s Capital Grill"/>
  </node>
  <node id="1183811220" version="1" timestamp="2011-03-03T01:19:14Z" uid="21289" user="hogrod" changeset="7442556" lat="43.2475844" lon="-89.8378147">
    <tag k="amenity" v="bar"/>
    <tag k="name" v="Bucksnort Saloon"/>
  </node>
  <node id="1186772403" version="1" timestamp="2011-03-05T03:14:56Z" uid="21289" user="hogrod" changeset="7459843" lat="43.0726694" lon="-89.3936172">
    <tag k="amenity" v="restaurant"/>
    <tag k="name" v="Casa Bianea Pizza Restuarant"/>
  </node>
  <node id="1186776089" version="1" timestamp="2011-03-05T03:19:01Z" uid="21289" user="hogrod" changeset="7459858" lat="43.0750646" lon="-89.3915798">
    <tag k="amenity" v="restaurant"/>
    <tag k="name" v="Pizzeria Uno"/>
  </node>
  <node id="1186802912" version="1" timestamp="2011-03-05T04:00:22Z" uid="21289" user="hogrod" changeset="7459925" lat="43.0675769" lon="-89.4042814">
    <tag k="amenity" v="restaurant"/>
    <tag k="name" v="Hong Kong Cafe"/>
  </node>
  <node id="1186808271" version="1" timestamp="2011-03-05T04:10:52Z" uid="21289" user="hogrod" changeset="7459925" lat="43.0674887" lon="-89.4075482">
    <tag k="amenity" v="restaurant"/>
    <tag k="name" v="Rocky Rococo Pizza"/>
  </node>
  <node id="1186808284" version="1" timestamp="2011-03-05T04:10:52Z" uid="21289" user="hogrod" changeset="7459925" lat="43.067959" lon="-89.4100695">
    <tag k="amenity" v="restaurant"/>
    <tag k="name" v="Subway"/>
  </node>
  <node id="1191237581" version="3" timestamp="2013-05-08T17:22:43Z" uid="186228" user="Jpchip" changeset="16034248" lat="43.0727459" lon="-89.3840306">
    <tag k="addr:city" v="Madison"/>
    <tag k="addr:housenumber" v="111"/>
    <tag k="addr:postcode" v="WI"/>
    <tag k="addr:street" v="South Hamilton Street"/>
    <tag k="amenity" v="restaurant"/>
    <tag k="name" v="Nostrano"/>
    <tag k="phone" v="(608) 395-3295"/>
    <tag k="website" v="http://nostranomadison.com/"/>
  </node>
  <node id="1191241582" version="2" timestamp="2011-03-07T16:34:17Z" uid="21289" user="hogrod" changeset="7485882" lat="43.073022" lon="-89.3845002">
    <tag k="amenity" v="bar"/>
    <tag k="name" v="JJ&apos;s Lounge &amp; Restaurant"/>
  </node>
  <node id="1191241583" version="2" timestamp="2011-03-07T16:34:17Z" uid="21289" user="hogrod" changeset="7485882" lat="43.0727008" lon="-89.3844171">
    <tag k="amenity" v="bar"/>
    <tag k="name" v="Genna&apos;s Lounge"/>
  </node>
  <node id="1191367702" version="1" timestamp="2011-03-07T18:23:28Z" uid="21289" user="hogrod" changeset="7487003" lat="43.0734355" lon="-89.383328">
    <tag k="amenity" v="bar"/>
    <tag k="name" v="Brocach Irish Pub"/>
  </node>
  <node id="1192154506" version="1" timestamp="2011-03-08T03:56:19Z" uid="21289" user="hogrod" changeset="7490974" lat="43.0757435" lon="-89.3770892">
    <tag k="amenity" v="bar"/>
    <tag k="name" v="Cardinal Cafe &amp; Bar"/>
  </node>
  <node id="1192154521" version="1" timestamp="2011-03-08T03:56:20Z" uid="21289" user="hogrod" changeset="7490974" lat="43.0762245" lon="-89.3763609">
    <tag k="amenity" v="bar"/>
    <tag k="name" v="Essen Haus"/>
  </node>
  <node id="1194989256" version="2" timestamp="2011-03-10T04:57:03Z" uid="21289" user="hogrod" changeset="7510826" lat="42.8147013" lon="-89.6340393">
    <tag k="amenity" v="restaurant"/>
    <tag k="name" v="Ticino Pizza"/>
  </node>
  <node id="1194990139" version="2" timestamp="2011-03-10T04:57:10Z" uid="21289" user="hogrod" changeset="7510826" lat="42.8146226" lon="-89.6343936">
    <tag k="amenity" v="restaurant"/>
    <tag k="name" v="New Glarus Hotel Restaurant"/>
  </node>
  <node id="1216779792" version="1" timestamp="2011-03-24T23:02:06Z" uid="24186" user="Brutus" changeset="7660983" lat="43.0466504" lon="-89.324025">
    <tag k="amenity" v="restaurant"/>
    <tag k="cuisine" v="burger"/>
    <tag k="name" v="Red Robin"/>
  </node>
  <node id="1217450200" version="2" timestamp="2011-03-25T11:56:02Z" uid="21289" user="hogrod" changeset="7664835" lat="43.2491403" lon="-89.676645">
    <tag k="amenity" v="restaurant"/>
    <tag k="name" v="Dorf Haus"/>
  </node>
  <node id="1217461760" version="1" timestamp="2011-03-25T12:23:18Z" uid="21289" user="hogrod" changeset="7665066" lat="43.2492587" lon="-89.6753562">
    <tag k="amenity" v="bar"/>
    <tag k="name" v="Roxbury Tavern"/>
  </node>
  <node id="1218555046" version="2" timestamp="2011-03-26T05:26:33Z" uid="21289" user="hogrod" changeset="7672160" lat="43.1416379" lon="-89.2850385">
    <tag k="amenity" v="bar"/>
    <tag k="name" v="Pooley&apos;s"/>
  </node>
  <node id="1218564471" version="1" timestamp="2011-03-26T05:58:52Z" uid="21289" user="hogrod" changeset="7672226" lat="43.1869811" lon="-89.2309464">
    <tag k="amenity" v="restaurant"/>
    <tag k="name" v="Country Cafe"/>
  </node>
  <node id="1221098925" version="4" timestamp="2011-03-27T08:38:02Z" uid="21289" user="hogrod" changeset="7683207" lat="43.1232264" lon="-89.3142034">
    <tag k="amenity" v="restaurant"/>
    <tag k="name" v="Denny&apos;s"/>
  </node>
  <node id="1221119720" version="2" timestamp="2011-03-27T07:29:49Z" uid="21289" user="hogrod" changeset="7682722" lat="43.122831" lon="-89.3148444">
    <tag k="amenity" v="restaurant"/>
    <tag k="name" v="Old Country Buffet"/>
  </node>
  <node id="1221340793" version="1" timestamp="2011-03-27T11:34:09Z" uid="21289" user="hogrod" changeset="7684983" lat="43.1268149" lon="-89.3087546">
    <tag k="amenity" v="restaurant"/>
    <tag k="name" v="Chili&apos;s Grill &amp; Bar"/>
  </node>
  <node id="1221341514" version="1" timestamp="2011-03-27T11:34:47Z" uid="21289" user="hogrod" changeset="7684983" lat="43.1263401" lon="-89.3093876">
    <tag k="amenity" v="restaurant"/>
    <tag k="name" v="Olive Garden"/>
  </node>
  <node id="1227243686" version="1" timestamp="2011-03-31T21:33:07Z" uid="21289" user="hogrod" changeset="7730432" lat="42.9185872" lon="-89.2380461">
    <tag k="amenity" v="restaurant"/>
    <tag k="name" v="Pizza Hut"/>
  </node>
  <node id="1231227695" version="1" timestamp="2011-04-03T18:20:02Z" uid="21289" user="hogrod" changeset="7757367" lat="43.0324438" lon="-89.4778747">
    <tag k="amenity" v="restaurant"/>
    <tag k="name" v="chang jiang"/>
  </node>
  <node id="1234901285" version="1" timestamp="2011-04-06T17:42:57Z" uid="24186" user="Brutus" changeset="7787259" lat="43.0711333" lon="-89.4522957">
    <tag k="amenity" v="pub"/>
    <tag k="name" v="The Great Dane Pub"/>
  </node>
  <node id="1234918422" version="1" timestamp="2011-04-06T17:56:22Z" uid="24186" user="Brutus" changeset="7787259" lat="43.0746532" lon="-89.4515339">
    <tag k="amenity" v="restaurant"/>
    <tag k="cuisine" v="regional"/>
    <tag k="name" v="Flemming&apos;s"/>
  </node>
  <node id="1236861253" version="1" timestamp="2011-04-08T02:44:33Z" uid="24186" user="Brutus" changeset="7800194" lat="43.0211601" lon="-89.4718474">
    <tag k="amenity" v="bar"/>
    <tag k="name" v="The DryBean Saloon"/>
  </node>
  <node id="1291940962" version="2" timestamp="2011-06-08T06:03:40Z" uid="21289" user="hogrod" changeset="8376199" lat="43.0682225" lon="-89.3913947">
    <tag k="amenity" v="pub"/>
    <tag k="name" v="Echo Tap and Grill"/>
  </node>
  <node id="1291940967" version="4" timestamp="2013-05-08T15:32:01Z" uid="186228" user="Jpchip" changeset="16031956" lat="43.0673366" lon="-89.3921125">
    <tag k="addr:city" v="Madison"/>
    <tag k="addr:housenumber" v="627"/>
    <tag k="addr:postcode" v="53703"/>
    <tag k="addr:street" v="West Main Street"/>
    <tag k="amenity" v="pub"/>
    <tag k="name" v="Main Depot"/>
  </node>
  <node id="1345484708" version="2" timestamp="2012-04-08T03:16:15Z" uid="16591" user="neuhausr" changeset="11219534" lat="43.0567233" lon="-89.4287896">
    <tag k="amenity" v="pub"/>
    <tag k="name" v="Bluephie&apos;s"/>
  </node>
  <node id="1345870970" version="1" timestamp="2011-07-01T15:30:02Z" uid="479744" user="Midnightlightning" changeset="8600515" lat="43.0731775" lon="-89.5257334">
    <tag k="amenity" v="restaurant"/>
    <tag k="name" v="Biaggi&apos;s"/>
  </node>
  <node id="1345871043" version="1" timestamp="2011-07-01T15:30:06Z" uid="479744" user="Midnightlightning" changeset="8600515" lat="43.0733225" lon="-89.5250923">
    <tag k="amenity" v="restaurant"/>
    <tag k="name" v="Eno Vino"/>
  </node>
  <node id="1345873399" version="1" timestamp="2011-07-01T15:34:14Z" uid="479744" user="Midnightlightning" changeset="8600515" lat="43.0731089" lon="-89.5264066">
    <tag k="amenity" v="restaurant"/>
    <tag k="name" v="Hu Hot Mongolian Grill"/>
  </node>
  <node id="1348850872" version="4" timestamp="2012-09-23T02:40:31Z" uid="290680" user="wheelmap_visitor" changeset="13215004" lat="43.0798541" lon="-89.3762311">
    <tag k="addr:housenumber" v="701"/>
    <tag k="addr:postcode" v="53703"/>
    <tag k="addr:street" v=" E Washington Ave"/>
    <tag k="amenity" v="pub"/>
    <tag k="name" v="High Noon Saloon"/>
    <tag k="website" v="http://high-noon.com/"/>
    <tag k="wheelchair" v="limited"/>
  </node>
  <node id="1348850923" version="1" timestamp="2011-07-04T03:00:41Z" uid="16591" user="neuhausr" changeset="8625450" lat="43.0800167" lon="-89.3761721">
    <tag k="amenity" v="pub"/>
    <tag k="name" v="Brass Ring"/>
  </node>
  <node id="1349224281" version="1" timestamp="2011-07-04T14:10:49Z" uid="16591" user="neuhausr" changeset="8629850" lat="43.0750084" lon="-89.4416344">
    <tag k="amenity" v="restaurant"/>
    <tag k="name" v="Smoky&apos;s Supper Club"/>
  </node>
  <node id="1374178110" version="1" timestamp="2011-07-25T20:19:20Z" uid="16591" user="neuhausr" changeset="8829739" lat="43.0563952" lon="-89.5049716">
    <tag k="amenity" v="pub"/>
    <tag k="name" v="Granite City Food &amp; Brewery"/>
  </node>
  <node id="1478608233" version="1" timestamp="2011-10-24T03:03:30Z" uid="542589" user="MAK2222" changeset="9639854" lat="43.2714446" lon="-89.7366837">
    <tag k="amenity" v="restaurant"/>
    <tag k="cuisine" v="sandwich"/>
    <tag k="name" v="Subway"/>
  </node>
  <node id="1478629473" version="1" timestamp="2011-10-24T03:14:52Z" uid="542589" user="MAK2222" changeset="9639854" lat="43.2717473" lon="-89.7352434">
    <tag k="amenity" v="restaurant"/>
    <tag k="name" v="Pizza Hut"/>
  </node>
  <node id="1627167791" version="1" timestamp="2012-02-10T18:19:41Z" uid="141346" user="csights" changeset="10645871" lat="43.0719127" lon="-89.4288124">
    <tag k="addr:housenumber" v="2503"/>
    <tag k="addr:street" v="University Avenue"/>
    <tag k="amenity" v="restaurant"/>
    <tag k="cuisine" v="korean"/>
    <tag k="name" v="New Seoul Korean Restaurant"/>
  </node>
  <node id="1642326613" version="1" timestamp="2012-02-21T21:43:56Z" uid="608872" user="Michael Birch" changeset="10754343" lat="43.0041717" lon="-89.0183535">
    <tag k="addr:housename" v="The Keystone Grill"/>
    <tag k="addr:housenumber" v="206 W. Main Street"/>
    <tag k="addr:postcode" v="53523"/>
    <tag k="addr:street" v="Main Street"/>
    <tag k="amenity" v="restaurant"/>
    <tag k="cuisine" v="american"/>
    <tag k="name" v="The Keystone Grill"/>
    <tag k="website" v="http://www.thekeystonegrill.com"/>
  </node>
  <node id="1692599119" version="1" timestamp="2012-03-27T02:08:43Z" uid="89073" user="eimer42" changeset="11112163" lat="43.0553254" lon="-89.4959305">
    <tag k="amenity" v="restaurant"/>
    <tag k="name" v="Basie&apos;s"/>
  </node>
  <node id="1709850691" version="2" timestamp="2012-04-10T12:33:53Z" uid="89073" user="eimer42" changeset="11251755" lat="43.0753805" lon="-89.3931402">
    <tag k="addr:housenumber" v="240"/>
    <tag k="addr:postcode" v="53703"/>
    <tag k="addr:street" v="W. Gilman Street"/>
    <tag k="amenity" v="restaurant"/>
    <tag k="cuisine" v="brazilian"/>
    <tag k="name" v="Samba"/>
    <tag k="website" v="http://sambabraziliangrill.com"/>
  </node>
  <node id="1709851028" version="3" timestamp="2012-04-23T21:21:44Z" uid="290680" user="wheelmap_visitor" changeset="11392135" lat="43.076244" lon="-89.3836141">
    <tag k="addr:housenumber" v="23"/>
    <tag k="addr:postcode" v="53703"/>
    <tag k="addr:street" v="N. Pinckney Street"/>
    <tag k="amenity" v="restaurant"/>
    <tag k="cuisine" v="regional"/>
    <tag k="name" v="The Old Fashioned"/>
    <tag k="wheelchair" v="yes"/>
  </node>
  <node id="1716988973" version="2" timestamp="2012-04-14T22:25:43Z" uid="325628" user="jirilebl" changeset="11304597" lat="43.0750125" lon="-89.3962303">
    <tag k="amenity" v="restaurant"/>
    <tag k="cuisine" v="international"/>
    <tag k="name" v="Sunroom Cafe"/>
  </node>
  <node id="1716994601" version="1" timestamp="2012-04-14T22:28:33Z" uid="325628" user="jirilebl" changeset="11304597" lat="43.074797" lon="-89.3964422">
    <tag k="amenity" v="restaurant"/>
    <tag k="cuisine" v="greek"/>
    <tag k="name" v="Mediterranean Cafe"/>
  </node>
  <node id="1717025926" version="1" timestamp="2012-04-14T22:51:09Z" uid="325628" user="jirilebl" changeset="11304758" lat="43.0611169" lon="-89.4385278">
    <tag k="amenity" v="restaurant"/>
    <tag k="name" v="fit2eat"/>
  </node>
  <node id="1718635543" version="1" timestamp="2012-04-15T22:45:50Z" uid="325628" user="jirilebl" changeset="11316886" lat="43.064896" lon="-89.4169085">
    <tag k="addr:housenumber" v="1843"/>
    <tag k="addr:street" v="Monroe St"/>
    <tag k="amenity" v="pub"/>
    <tag k="name" v="Brocach Irish Pub"/>
    <tag k="website" v="http://www.brocach.com/mmonroe/home.html"/>
  </node>
  <node id="1722996035" version="1" timestamp="2012-04-19T15:28:55Z" uid="648823" user="mmmbeer" changeset="11355092" lat="42.91674" lon="-89.4111622">
    <tag k="amenity" v="restaurant"/>
    <tag k="cuisine" v="american"/>
    <tag k="name" v="The Legend at the Bergamont"/>
  </node>
  <node id="1730818515" version="1" timestamp="2012-04-25T16:26:12Z" uid="479744" user="Midnightlightning" changeset="11416551" lat="43.086514" lon="-89.5249596">
    <tag k="amenity" v="bar"/>
    <tag k="name" v="Sprecher&apos;s"/>
    <tag k="wifi" v="free"/>
  </node>
  <node id="1743291684" version="2" timestamp="2013-05-08T16:32:49Z" uid="1429613" user="slugbug99" changeset="16033247" lat="43.1199361" lon="-89.3244342">
    <tag k="addr:housenumber" v="1617"/>
    <tag k="addr:postcode" v="53704"/>
    <tag k="addr:street" v="North Stoughton Road"/>
    <tag k="amenity" v="bar"/>
    <tag k="name" v="Lazy Oaf Lounge"/>
    <tag k="website" v="www.lazyoaflounge.com"/>
    <tag k="wifi" v="free"/>
  </node>
  <node id="1743730265" version="1" timestamp="2012-05-06T22:37:04Z" uid="325628" user="jirilebl" changeset="11523932" lat="43.0354513" lon="-89.444135">
    <tag k="amenity" v="pub"/>
    <tag k="name" v="Tony Frank&apos;s Tavern"/>
  </node>
  <node id="1769500348" version="1" timestamp="2012-05-29T13:51:09Z" uid="648823" user="mmmbeer" changeset="11737999" lat="42.9295662" lon="-89.4038577">
    <tag k="addr:housename" v="830"/>
    <tag k="addr:postcode" v="53575"/>
    <tag k="addr:street" v="Oregon Center Drive"/>
    <tag k="amenity" v="restaurant"/>
    <tag k="cuisine" v="burger"/>
    <tag k="name" v="Mulligan&apos;s Bar &amp; Grill"/>
    <tag k="website" v="mulliganspuboregon.comâ€Ž"/>
  </node>
  <node id="1769574060" version="1" timestamp="2012-05-29T15:59:36Z" uid="648823" user="mmmbeer" changeset="11739545" lat="42.926222" lon="-89.3847661">
    <tag k="addr:housenumber" v="101"/>
    <tag k="addr:postcode" v="53575"/>
    <tag k="addr:street" v="South Main Street"/>
    <tag k="amenity" v="restaurant"/>
    <tag k="cuisine" v="american"/>
    <tag k="name" v="DeBroux&apos;s Diner"/>
  </node>
  <node id="1769574062" version="1" timestamp="2012-05-29T15:59:37Z" uid="648823" user="mmmbeer" changeset="11739545" lat="42.9259234" lon="-89.3846961">
    <tag k="addr:housenumber" v="113"/>
    <tag k="addr:postcode" v="53575"/>
    <tag k="addr:street" v="South Main Street"/>
    <tag k="amenity" v="restaurant"/>
    <tag k="name" v="Senor Peppers"/>
  </node>
  <node id="1771019342" version="1" timestamp="2012-05-31T02:21:04Z" uid="648823" user="mmmbeer" changeset="11754092" lat="42.9791287" lon="-89.5164276">
    <tag k="amenity" v="restaurant"/>
    <tag k="name" v="Gray&apos;s Tidehouse"/>
  </node>
  <node id="1805087670" version="1" timestamp="2012-06-28T14:26:15Z" uid="714004" user="csee" changeset="12047353" lat="43.1034352" lon="-89.3501689">
    <tag k="addr:housenumber" v="301"/>
    <tag k="addr:postcode" v="53704"/>
    <tag k="addr:street" v="North Street "/>
    <tag k="amenity" v="pub"/>
    <tag k="name" v="Dexter&apos;s Pub"/>
    <tag k="website" v="http://www.dexterspubmadison.com/"/>
    <tag k="wifi" v="yes"/>
  </node>
  <node id="1855692032" version="1" timestamp="2012-08-07T14:58:09Z" uid="714004" user="csee" changeset="12646524" lat="43.1029317" lon="-89.3500641">
    <tag k="addr:housenumber" v="231"/>
    <tag k="addr:postcode" v="53704 "/>
    <tag k="addr:street" v="North Street"/>
    <tag k="amenity" v="restaurant"/>
    <tag k="designation" v="Empanadas - Bakery "/>
    <tag k="name" v="Nonna Rita&apos;s Empanadas"/>
    <tag k="source" v="http://www.nonnaritas.com/"/>
    <tag k="website" v="http://www.nonnaritas.com"/>
  </node>
  <node id="1855751876" version="1" timestamp="2012-08-07T15:37:55Z" uid="714004" user="csee" changeset="12646642" lat="43.1005081" lon="-89.3482416">
    <tag k="addr:housenumber" v="2608"/>
    <tag k="addr:postcode" v="53704"/>
    <tag k="addr:street" v="E. Washington St."/>
    <tag k="amenity" v="pub"/>
    <tag k="designation" v="Tavern"/>
    <tag k="name" v="The Malt House"/>
    <tag k="source" v="http://malthousetavern.com/"/>
    <tag k="website" v="http://malthousetavern.com/"/>
  </node>
  <node id="1855775377" version="1" timestamp="2012-08-07T15:50:21Z" uid="714004" user="csee" changeset="12646642" lat="43.0983939" lon="-89.357062">
    <tag k="addr:housenumber" v="2202"/>
    <tag k="addr:postcode" v="53704"/>
    <tag k="addr:street" v="E. Johnson"/>
    <tag k="amenity" v="restaurant"/>
    <tag k="cuisine" v="sandwich"/>
    <tag k="name" v="Milio&apos;s Sandwiches"/>
    <tag k="source" v="http://www.milios.com/"/>
    <tag k="website" v="http://www.milios.com/"/>
  </node>
  <node id="1857342369" version="1" timestamp="2012-08-08T15:48:25Z" uid="714004" user="csee" changeset="12658299" lat="43.0921032" lon="-89.3556769">
    <tag k="amenity" v="bar"/>
    <tag k="designation" v="Bar"/>
    <tag k="name" v="The Ideal Bar"/>
    <tag k="source" v="Manual"/>
  </node>
  <node id="1857342945" version="2" timestamp="2012-08-10T12:53:57Z" uid="300459" user="didier2020" changeset="12679810" lat="43.0923618" lon="-89.3553229">
    <tag k="amenity" v="restaurant"/>
    <tag k="cuisine" v="regional"/>
    <tag k="name" v="Alchemy"/>
    <tag k="source" v="Manual"/>
    <tag k="website" v="http://www.alchemycafe.net/"/>
  </node>
  <node id="1857351688" version="1" timestamp="2012-08-08T15:59:48Z" uid="714004" user="csee" changeset="12658714" lat="43.1069746" lon="-89.3510689">
    <tag k="amenity" v="bar"/>
    <tag k="designation" v="Tavern"/>
    <tag k="name" v="Tip Top Tavern"/>
    <tag k="source" v="Manual"/>
  </node>
  <node id="1857356144" version="2" timestamp="2013-02-06T07:34:14Z" uid="589814" user="capstone" changeset="14930080" lat="43.1035085" lon="-89.3445941">
    <tag k="amenity" v="restaurant"/>
    <tag k="cuisine" v="american"/>
    <tag k="name" v="Ella&apos;s Deli and Ice Cream Parlor"/>
    <tag k="source" v="Manual"/>
    <tag k="website" v="http://www.ellasdeli.com/"/>
  </node>
  <node id="1857367997" version="1" timestamp="2012-08-08T16:09:43Z" uid="714004" user="csee" changeset="12658714" lat="43.1030032" lon="-89.3455972">
    <tag k="amenity" v="restaurant"/>
    <tag k="designation" v="Lebanese and Mediterranean"/>
    <tag k="name" v="The People&apos;s Bakery"/>
    <tag k="source" v="Manual"/>
    <tag k="website" v="http://www.peoplesbakerymadison.com/"/>
  </node>
  <node id="1858956478" version="1" timestamp="2012-08-09T15:57:13Z" uid="714004" user="csee" changeset="12669771" lat="43.1045806" lon="-89.3581383">
    <tag k="amenity" v="pub"/>
    <tag k="name" v="Slices Bar and Grill"/>
    <tag k="source" v="Manual"/>
  </node>
  <node id="1924182055" version="1" timestamp="2012-09-20T20:59:20Z" uid="901773" user="jlklopstein" changeset="13188700" lat="43.0753145" lon="-89.3908215">
    <tag k="addr:housenumber" v="201"/>
    <tag k="addr:postcode" v="53703"/>
    <tag k="addr:street" v="Gorham Street"/>
    <tag k="amenity" v="restaurant"/>
    <tag k="cuisine" v="burger"/>
    <tag k="name" v="AJ Bombers Madison"/>
    <tag k="website" v="www.ajbombers.com "/>
  </node>
  <node id="1959418343" version="1" timestamp="2012-10-11T21:26:44Z" uid="969455" user="superkingjf" changeset="13460252" lat="43.1863264" lon="-89.2320458">
    <tag k="addr:housenumber" v="1086"/>
    <tag k="addr:postcode" v="53590"/>
    <tag k="addr:street" v="Emerald Terrace"/>
    <tag k="amenity" v="restaurant"/>
    <tag k="cuisine" v="italian"/>
    <tag k="name" v="JB&apos;s Italian Grille"/>
    <tag k="website" v="www.jbsitaliangrille.com"/>
  </node>
  <node id="1963718961" version="2" timestamp="2012-10-20T23:54:02Z" uid="325628" user="jirilebl" changeset="13574416" lat="43.0528871" lon="-89.4355911">
    <tag k="amenity" v="restaurant"/>
    <tag k="name" v="Gates &amp; Brovi"/>
    <tag k="website" v="http://gatesandbrovi.com/"/>
  </node>
  <node id="1975868048" version="1" timestamp="2012-10-20T23:49:22Z" uid="325628" user="jirilebl" changeset="13574346" lat="43.0575188" lon="-89.4281458">
    <tag k="amenity" v="restaurant"/>
    <tag k="name" v="Jacs Dining &amp; Taphouse"/>
  </node>
  <node id="2143577376" version="1" timestamp="2013-02-06T08:16:22Z" uid="589814" user="capstone" changeset="14930422" lat="43.1289251" lon="-89.3604324">
    <tag k="amenity" v="restaurant"/>
    <tag k="cuisine" v="italian"/>
    <tag k="name" v="Benvenuto&apos;s Italian Grill"/>
  </node>
  <node id="2143580948" version="2" timestamp="2013-04-01T22:43:43Z" uid="1320649" user="SRL" changeset="15575225" lat="43.1071693" lon="-89.3630073">
    <tag k="addr:housename" v="INFERNO"/>
    <tag k="addr:housenumber" v="1718 "/>
    <tag k="addr:postcode" v="53704"/>
    <tag k="addr:street" v="Commercial Ave"/>
    <tag k="amenity" v="bar"/>
    <tag k="name" v="INFERNO nightclub"/>
    <tag k="source" v="Google Places"/>
    <tag k="website" v="www.clubinferno.com"/>
    <tag k="wifi" v="yes"/>
  </node>
  <node id="2143605555" version="1" timestamp="2013-02-06T08:27:49Z" uid="589814" user="capstone" changeset="14930422" lat="43.1138268" lon="-89.3594453">
    <tag k="amenity" v="pub"/>
    <tag k="name" v="Wiggie&apos;s Bar &amp; Grill"/>
  </node>
  <node id="2143658578" version="1" timestamp="2013-02-06T08:50:16Z" uid="589814" user="capstone" changeset="14930422" lat="43.0982195" lon="-89.364225">
    <tag k="amenity" v="restaurant"/>
    <tag k="cuisine" v="regional"/>
    <tag k="name" v="New Orleans Takeout"/>
  </node>
  <node id="2143714074" version="1" timestamp="2013-02-06T09:46:07Z" uid="589814" user="capstone" changeset="14930422" lat="43.1739159" lon="-89.3252847">
    <tag k="amenity" v="restaurant"/>
  </node>
  <node id="2295991249" version="1" timestamp="2013-05-08T15:06:13Z" uid="24551" user="teste18" changeset="16031473" lat="43.0766881" lon="-89.3746956">
    <tag k="addr:city" v="Madison"/>
    <tag k="addr:housenumber" v="600"/>
    <tag k="addr:street" v="Williamson Street"/>
    <tag k="amenity" v="restaurant"/>
    <tag k="cuisine" v="thai"/>
    <tag k="name" v="Bandung Indonesian Restaurant"/>
    <tag k="payment:bitcoin" v="yes"/>
    <tag k="website" v="http://bandungrestaurant.com/"/>
  </node>
  <node id="2296107853" version="2" timestamp="2013-05-08T16:32:01Z" uid="1429613" user="slugbug99" changeset="16033247" lat="43.1201595" lon="-89.324153">
    <tag k="addr:city" v="Madison"/>
    <tag k="addr:housenumber" v="1617"/>
    <tag k="addr:postcode" v="53704"/>
    <tag k="addr:street" v="North Stoughton Road"/>
    <tag k="amenity" v="restaurant"/>
    <tag k="cuisine" v="regional"/>
    <tag k="designation" v="Catering"/>
    <tag k="name" v="Upstairs Downstairs Catering"/>
    <tag k="phone" v="608-256-4600"/>
    <tag k="website" v="http://www.updowncatering.com"/>
  </node>
  <node id="2329147947" version="1" timestamp="2013-06-02T09:11:00Z" uid="21289" user="hogrod" changeset="16388412" lat="42.8135854" lon="-89.6326074">
    <tag k="amenity" v="restaurant"/>
    <tag k="cuisine" v="pizza"/>
    <tag k="name" v="Sugar River Pizza"/>
  </node>
</osm>
